{
  "norad_id": 62417,
  "name": "STARLINK-11428 [DTC]",
  "history": [
    {
      "epoch": "2026-03-28T22:08:35.636352",
      "apogee_km": 357.62372184988544,
      "perigee_km": 354.8935978493819,
      "latitude_deg": -2.788534749312349,
      "longitude_deg": 150.272929280065,
      "semi_major_axis_km": 6734.395659849633,
      "eccentricity": 0.0002027,
      "inclination_deg": 43.0014,
      "raan_deg": 51.8953,
      "arg_perigee_deg": 243.0842,
      "mean_anomaly_deg": 116.9818,
      "mean_motion_rev_day": 15.70922714
    }
  ]
}